UNKNOWN                 
1 84071U          23087.36282363  .00011721  00000+0  60908-2 0  9999
2 84071  20.3915 134.4805 6941747  84.4409 344.5424  2.69104898 77528
UNKNOWN                 
1 84136U          23086.94860093  .01194597  23639-3  21308-1 0  9997
2 84136  51.3105   4.9752 0576428 142.1677 222.1276 14.56575935403768
UNKNOWN                 
1 84170U 12008    23086.33428578  .00006410  00000+0  44875-2 0  9990
2 84170  21.0636  78.0682 6919035  87.3800 343.4949  2.71037048 67191
UNKNOWN                 
1 84188U          23087.35698528  .00004677  00000+0  15573-1 0  9990
2 84188  64.9946 187.6563 4617006  99.9373 313.4943  5.85527971178922
UNKNOWN                 
1 84232U 79104    23087.09746651  .00004376  00000+0  40493-2 0  9999
2 84232  20.4361  84.6415 6808601 185.3912 159.4691  2.84069463 74900
UNKNOWN                 
1 84236U          23087.06033002  .00002704  00000+0  10360-1 0  9990
2 84236   9.2426  67.9794 6943583 287.8181  11.9589  2.59846083176803
UNKNOWN                 
1 84292U          23087.15232581  .00018210  00000+0  47731-2 0  9997
2 84292  23.8698  69.9539 4753456  53.4954 341.5825  5.98757186167376
UNKNOWN                 
1 84346U          23086.90718938  .00009650  00000+0  18332-2 0  9997
2 84346  21.1324 353.3079 6846467 245.8715  31.2091  2.85047725 57843
UNKNOWN                 
1 84353U          23081.68171507 -.00000306  00000+0  00000+0 0  9990
2 84353  18.3702 215.0907 6709796  29.8683 355.2845  2.03736590 47817
UNKNOWN                 
1 84406U          23086.09543406  .00000989  00000+0  55017-2 0  9997
2 84406 101.6783 209.6018 0048233 194.7802 339.4125 12.65637900923771
UNKNOWN                 
1 84415U          23087.44032036  .01752829  23366-3  21175-1 0  9998
2 84415  23.7335 191.5892 2691685 306.2716  31.7515 10.11646082 42056
UNKNOWN                 
1 84434U          23085.93055790  .00007238  00000+0  21227-1 0  9993
2 84434  20.6615 349.7133 7145434  67.7237 350.0624  2.36342560 62510
UNKNOWN                 
1 84452U          23087.44443467  .00006621  00000+0  12239-2 0  9992
2 84452   2.7301 200.7952 6132126  92.2346 334.3971  3.85081242116528
UNKNOWN                 
1 84480U          23087.09374247  .00019780  00000+0  89946-2 0  9992
2 84480  45.9196 150.9836 4506034 226.8063  85.5596  6.33934454195713
UNKNOWN                 
1 84565U          23087.49797738  .00004180  00000+0  84708-2 0  9993
2 84565   2.2842  47.9809 7221505 356.5152   0.2457  2.28971114 40944
UNKNOWN                 
1 84575U          23086.67310239 -.00000225  00000+0 -10180-1 0  9990
2 84575  18.0315 126.8101 7134904 138.7434 306.0359  2.19799946 43656
UNKNOWN                 
1 84911U          23087.59400588  .00000143  00000+0  33364-2 0  9990
2 84911   1.5809 178.0962 6579562 191.3698  77.0778  2.95959974101229
UNKNOWN                 
1 84932U          23065.07144340  .00000218  00000+0  30807-2 0  9995
2 84932   2.4591  59.3828 6544802  61.6349  73.4729  2.98964851101424
UNKNOWN                 
1 84950U          23087.52809174  .00000042  00000+0  00000+0 0  9996
2 84950   2.4885 342.0904 6973675 347.2850 248.9196  2.04277923 69751
UNKNOWN                 
1 84961U          23086.42699377 -.00000315  00000+0  00000+0 0  9992
2 84961   7.8890 293.4979 0124002 235.0044 123.6690  0.98630785 33674
UNKNOWN                 
1 85004U          23087.24356654  .00001735  00000+0  59366-3 0  9999
2 85004  98.3074  72.3352 0048960 254.2281 118.0226 14.36818847489611
UNKNOWN                 
1 85010U          23086.14605094  .00001647  00000+0  18615-2 0  9992
2 85010  99.3319 325.9000 0027721 332.8103 179.7165 13.71841704467805
UNKNOWN                 
1 85011U          23083.26404008  .00784001  00000+0  17133+0 0  9998
2 85011  70.9671  36.2598 0018692 228.6739 131.2796 14.54761621281493
UNKNOWN                 
1 85015U          23085.85408754  .00000986  00000+0  21045-3 0  9995
2 85015  74.0483 133.0297 0016055 293.2479  66.6996 14.60181050497733
UNKNOWN                 
1 85023U          23087.38439878  .00007233  00000+0  27620-2 0  9991
2 85023  99.8669 290.8462 0003418 342.5911 140.1939 14.31091315485607
UNKNOWN                 
1 85027U          23087.20954385  .00000409  00000+0  46652-3 0  9996
2 85027  66.0445   5.6415 0178915 351.9756   7.8453 13.73524833468540
UNKNOWN                 
1 85047U          23086.30795592  .00009678  00000+0  24822-1 0  9991
2 85047 102.3279 219.7586 0115198  12.6559 347.7397 13.15880811444964
UNKNOWN                 
1 85061U          23087.62261788  .00002838  00000+0  12608-1 0  9998
2 85061 102.4943 330.1064 0305923 299.6323  84.2754 12.66969962429920
UNKNOWN                 
1 85100U          23087.15900786  .00000842  00000+0  28002-3 0  9998
2 85100  74.0441 251.8225 0012483   2.8596 116.8493 14.39217398490764
UNKNOWN                 
1 85106U          23086.93745580  .00000880  00000+0  10387-2 0  9996
2 85106 100.1288 127.2119 0009684  18.0029 103.4142 13.71056009467208
UNKNOWN                 
1 85111U 73086    23084.36122779  .00000727  00000+0  49901-2 0  9994
2 85111 101.6829  53.6527 0014077  75.8428 284.4206 12.51204931341659
UNKNOWN                 
1 85151U 86019    23087.34504147  .00009418  00000+0  28094-2 0  9998
2 85151  98.4769 286.6774 0015234 311.4799  48.5083 14.43155642335266
UNKNOWN                 
1 85159U          23087.53117769  .00009029  00000+0  41672-2 0  9998
2 85159  98.8332 355.8379 0073957 187.6808 172.3241 14.19734428358618
UNKNOWN                 
1 85175U          23079.96742973  .00067617  00000+0  87571-2 0  9990
2 85175 101.3465 159.7812 0101829 267.2824  91.6715 14.76896727478491
UNKNOWN                 
1 85205U          23085.92045044  .00000259  00000+0  24724-3 0  9993
2 85205  82.9577 331.2732 0036508 180.8366 191.6457 13.76571568469905
UNKNOWN                 
1 85210U 75052    23087.55275780  .00000926  00000+0  95516-3 0  9999
2 85210  99.7830 196.9359 0218806 330.8901  92.8659 13.68894580466552
UNKNOWN                 
1 85217U          23087.22811641  .00005883  00000+0  17916-2 0  9997
2 85217  97.9466 246.2424 0234975 220.2879 138.0687 14.27626828486074
UNKNOWN                 
1 85220U          23087.57467343  .00022305  00000+0  51927-2 0  9993
2 85220  99.4052 312.1345 0152584 335.1160  24.2725 14.47921525488889
UNKNOWN                 
1 85237U          23082.50054817  .00011371  00000+0  27897-2 0  9997
2 85237  65.5407 269.5467 0575920 115.8509 250.3104 13.83597006469837
UNKNOWN                 
1 85238U          23087.67199281  .00000162  00000+0  16880-3 0  9993
2 85238  98.9597  39.4249 0063718   2.2926 120.9743 13.88034434473471
UNKNOWN                 
1 85246U          23087.18392927  .00001878  00000+0  73240-3 0  9998
2 85246  98.0752 171.5284 0235077 331.2906  27.5495 14.16764590482586
UNKNOWN                 
1 85266U          23075.98528839  .00011920  00000+0  13244-1 0  9993
2 85266  62.7945 308.4825 3552827 179.3146 181.4834  7.81913690262671
UNKNOWN                 
1 85370U          23086.13098461  .00002111  00000+0  19177-2 0  9995
2 85370  99.9849 228.9342 0009721 114.7970  61.4238 13.84761121471685
UNKNOWN                 
1 85373U          23087.19157925  .00003133  00000+0  24608-2 0  9996
2 85373 100.3985 344.1841 0050149 313.6212 200.8994 13.92212960473917
UNKNOWN                 
1 85383U          23083.02176684  .00029085  00000+0  70709-2 0  9995
2 85383  98.6435 188.4398 0095707 121.2920 239.7688 14.49965673441668
UNKNOWN                 
1 85386U          23083.29621301  .00169691  00000+0  35929-1 0  9990
2 85386  98.6467 204.0343 0095411  47.0366 341.9429 14.55368712600105
UNKNOWN                 
1 87014U          23086.68266465  .00003151  00000+0  54126-2 0  9991
2 87014 100.5366 348.0186 0052566  91.4904 297.7876 13.44758546457373
UNKNOWN                 
1 87029U 99025    23087.61028250  .00001361  00000+0  90775-3 0  9996
2 87029  98.8512 144.3306 0085210 134.7200 226.0945 14.00983935454198
UNKNOWN                 
1 87042U 00055    23085.39646793  .00001644  00000+0  10507-2 0  9995
2 87042  98.8246 149.2388 0043896   3.4495 356.6967 14.04391746414549
UNKNOWN                 
1 87051U 76126    23086.28929553  .00002635  00000+0  90477-3 0  9990
2 87051  65.7301  82.7532 0760713 227.5157 125.9165 13.38075598455568
UNKNOWN                 
1 87054U 75052    23080.08870854  .00003993  00000+0  26497-2 0  9999
2 87054 100.0818 193.5879 0017135 150.6451 209.5677 14.01979544476080
UNKNOWN                 
1 87065U 99025    23087.40050428  .00002943  00000+0  35913-2 0  9994
2 87065  98.7006  73.0736 0335794 320.5307  37.1797 13.45277925383266
UNKNOWN                 
1 87071U 68097    23086.97882093  .00011964  00000+0  44892-2 0  9997
2 87071  61.2218 296.2987 0564968 120.2309 245.5889 13.68822991466043
UNKNOWN                 
1 87074U 77121    23087.54136568  .00000416  00000+0  52019-3 0  9992
2 87074  66.1416 139.7917 0139446  92.6537 269.0497 13.70469935467447
UNKNOWN                 
1 87113U 76126    23087.22002576  .00016952  00000+0  23960-2 0  9990
2 87113  65.6597 135.0248 0327265   7.2611  53.7397 14.46661212488866
UNKNOWN                 
1 87129U 76077    23083.88931106  .00000261  00000+0  22338-2 0  9994
2 87129 102.3009 151.2491 0034311 120.4124 240.0337 12.42224926423230
UNKNOWN                 
1 87159U          23075.14346559  .00002867  00000+0  35394-2 0  9992
2 87159  90.3177  34.8559 0117402 345.6433  14.1398 13.62092833420016
UNKNOWN                 
1 87163U 76126    23087.53482505  .00003312  00000+0  10791-2 0  9997
2 87163  65.6012 137.6151 0688415 138.7014 226.8268 13.53189429443029
UNKNOWN                 
1 87164U          23086.83879741  .00006526  00000+0  17733-2 0  9993
2 87164  65.2059 289.4147 0125234 113.8171 247.6109 14.43628212492051
UNKNOWN                 
1 87203U          23087.12768567  .00040721  00000+0  67765-2 0  9998
2 87203  98.8839  47.7693 0053011 111.1930 249.4948 14.68962161408128
